NORAD_CAT_ID,OBJECT_NAME,OBJECT_TYPE,EPOCH,MEAN_MOTION,ECCENTRICITY,INCLINATION,RA_OF_ASC_NODE,ARG_OF_PERICENTER,MEAN_ANOMALY,BSTAR,MEAN_MOTION_DOT,MEAN_MOTION_DDOT,TLE_LINE0,TLE_LINE1,TLE_LINE2,SEMIMAJOR_AXIS,PERIOD,APOGEE,PERIGEE,DECAYED
53790.0,STARLINK-4734,PAYLOAD,2024-06-30 05:42:48,15.08832611,0.000141,53.2154,165.8452,94.4267,265.6886,4.117e-05,3.67e-06,0.0,0 STARLINK-4734,1 53790U 22111T   24182.23806611  .00000367  00000-0  41170-4 0  9998,2 53790  53.2154 165.8452 0001410  94.4267 265.6886 15.08832611 99672,6917.903,95.438,540.743,538.793,0.0
53790.0,STARLINK-4734,PAYLOAD,2024-06-30 08:53:35,15.0882876,0.0001348,53.2154,165.2512,93.3174,266.7972,3.5669e-05,2.8e-06,0.0,0 STARLINK-4734,1 53790U 22111T   24182.37054885  .00000280  00000-0  35669-4 0  9991,2 53790  53.2154 165.2512 0001348  93.3174 266.7972 15.08828760100501,6917.915,95.438,540.712,538.847,0.0
53790.0,STARLINK-4734,PAYLOAD,2024-07-01 05:33:35,15.0883818,0.0001343,53.2155,161.3866,92.027,268.0876,4.8752e-05,4.88e-06,0.0,0 STARLINK-4734,1 53790U 22111T   24183.23166474  .00000488  00000-0  48752-4 0  9992,2 53790  53.2155 161.3866 0001343  92.0270 268.0876 15.08838180100638,6917.886,95.438,540.68,538.822,0.0
53790.0,STARLINK-4734,PAYLOAD,2024-07-02 06:59:46,15.08835961,0.0001287,53.2156,156.6299,93.2078,266.9061,0.00013578,1.873e-05,0.0,0 STARLINK-4734,1 53790U 22111T   24184.29150699  .00001873  00000-0  13578-3 0  9997,2 53790  53.2156 156.6299 0001287  93.2078 266.9061 15.08835961 99984,6917.893,95.438,540.648,538.867,0.0
53790.0,STARLINK-4734,PAYLOAD,2024-07-02 21:18:14,15.08837974,0.0001486,53.2167,153.957,101.5477,258.5682,0.00013492,1.86e-05,0.0,0 STARLINK-4734,1 53790U 22111T   24184.88766695  .00001860  00000-0  13492-3 0  9992,2 53790  53.2167 153.9570 0001486 101.5477 258.5682 15.08837974100889,6917.887,95.438,540.78,538.724,0.0
53790.0,STARLINK-4734,PAYLOAD,2024-07-03 06:50:33,15.08837564,0.0001379,53.2165,152.1701,89.9158,270.1992,5.5549e-05,5.96e-06,0.0,0 STARLINK-4734,1 53790U 22111T   24185.28511052  .00000596  00000-0  55549-4 0  9997,2 53790  53.2165 152.1701 0001379  89.9158 270.1992 15.08837564100946,6917.888,95.438,540.707,538.799,0.0
53790.0,STARLINK-4734,PAYLOAD,2024-07-04 05:05:57,15.08836936,0.0001422,53.2167,148.0071,88.0471,272.0684,4.1077e-05,3.66e-06,0.0,0 STARLINK-4734,1 53790U 22111T   24186.21247300  .00000366  00000-0  41077-4 0  9999,2 53790  53.2167 148.0071 0001422  88.0471 272.0684 15.08836936100276,6917.89,95.438,540.738,538.771,0.0
53790.0,STARLINK-4734,PAYLOAD,2024-07-04 06:41:20,15.08837372,0.000141,53.2165,147.7097,87.7657,272.3496,4.3447e-05,4.04e-06,0.0,0 STARLINK-4734,1 53790U 22111T   24186.27871279  .00000404  00000-0  43447-4 0  9999,2 53790  53.2165 147.7097 0001410  87.7657 272.3496 15.08837372101097,6917.888,95.438,540.729,538.778,0.0
53790.0,STARLINK-4734,PAYLOAD,2024-07-04 14:38:15,15.08845987,0.0001458,53.2169,146.2225,83.147,276.9688,7.8748e-05,9.66e-06,0.0,0 STARLINK-4734,1 53790U 22111T   24186.60990597  .00000966  00000-0  78748-4 0  9996,2 53790  53.2169 146.2225 0001458  83.1470 276.9688 15.08845987100333,6917.862,95.437,540.736,538.718,0.0
53790.0,STARLINK-4734,PAYLOAD,2024-07-05 03:21:21,15.08837926,0.0001396,53.2151,143.8432,88.0401,272.0751,9.6863e-05,1.254e-05,0.0,0 STARLINK-4734,1 53790U 22111T   24187.13983010  .00001254  00000-0  96863-4 0  9996,2 53790  53.2151 143.8432 0001396  88.0401 272.0751 15.08837926100417,6917.887,95.438,540.717,538.786,0.0
53790.0,STARLINK-4734,PAYLOAD,2024-07-05 06:32:07,15.08844569,0.0001342,53.2159,143.2467,93.5502,266.5644,9.9598e-05,1.298e-05,0.0,0 STARLINK-4734,1 53790U 22111T   24187.27230564  .00001298  00000-0  99598-4 0  9996,2 53790  53.2159 143.2467 0001342  93.5502 266.5644 15.08844569101243,6917.866,95.437,540.66,538.803,0.0
53790.0,STARLINK-4734,PAYLOAD,2024-07-05 14:29:02,15.08848773,0.0001387,53.2163,141.7616,90.2854,269.8297,0.0001432,1.992e-05,0.0,0 STARLINK-4734,1 53790U 22111T   24187.60350153  .00001992  00000-0  14320-3 0  9990,2 53790  53.2163 141.7616 0001387  90.2854 269.8297 15.08848773100486,6917.854,95.437,540.678,538.759,0.0
53790.0,STARLINK-4734,PAYLOAD,2024-07-06 03:12:08,15.08839471,0.000153,53.2163,139.3821,116.9855,243.1293,6.2599e-05,7.08e-06,0.0,0 STARLINK-4734,1 53790U 22111T   24188.13342998  .00000708  00000-0  62599-4 0  9993,2 53790  53.2163 139.3821 0001530 116.9855 243.1293 15.08839471100569,6917.882,95.438,540.805,538.689,0.0
53790.0,STARLINK-4734,PAYLOAD,2024-07-06 14:19:50,15.08844856,0.0001561,53.2171,137.3,98.7688,261.3481,4.891e-05,4.91e-06,0.0,0 STARLINK-4734,1 53790U 22111T   24188.59710668  .00000491  00000-0  48910-4 0  9996,2 53790  53.2171 137.3000 0001561  98.7688 261.3481 15.08844856101442,6917.866,95.437,540.81,538.651,0.0
53790.0,STARLINK-4734,PAYLOAD,2024-07-07 06:13:41,15.08841126,0.0001613,53.2178,134.3255,111.993,248.1233,1.2783e-05,-8.5e-07,0.0,0 STARLINK-4734,1 53790U 22111T   24189.25951000 -.00000085  00000-0  12783-4 0  9996,2 53790  53.2178 134.3255 0001613 111.9930 248.1233 15.08841126100730,6917.877,95.437,540.858,538.626,0.0
53790.0,STARLINK-4734,PAYLOAD,2024-07-08 06:04:28,15.08841216,0.0001415,53.2168,129.8679,97.3443,262.771,7.6163e-05,9.24e-06,0.0,0 STARLINK-4734,1 53790U 22111T   24190.25311036  .00000924  00000-0  76163-4 0  9990,2 53790  53.2168 129.8679 0001415  97.3443 262.7710 15.08841216101692,6917.877,95.437,540.721,538.763,0.0
53790.0,STARLINK-4734,PAYLOAD,2024-07-09 02:44:30,15.08818987,0.0001217,53.2162,126.0005,91.9618,268.1513,0.00033073,4.977e-05,0.0,0 STARLINK-4734,1 53790U 22111T   24191.11424263  .00004977  00000-0  33073-3 0  9997,2 53790  53.2162 126.0005 0001217  91.9618 268.1513 15.08818987101018,6917.945,95.439,540.652,538.968,0.0
53790.0,STARLINK-4734,PAYLOAD,2024-07-09 12:16:48,15.08846456,0.0001282,53.2165,124.2151,84.5752,275.5386,0.00011941,1.613e-05,0.0,0 STARLINK-4734,1 53790U 22111T   24191.51166744  .00001613  00000-0  11941-3 0  9992,2 53790  53.2165 124.2151 0001282  84.5752 275.5386 15.08846456101070,6917.861,95.437,540.613,538.839,0.0
53790.0,STARLINK-4734,PAYLOAD,2024-07-09 18:38:21,15.08837743,0.0001355,53.2183,123.0348,97.0331,263.0815,9.7238e-05,1.26e-05,0.0,0 STARLINK-4734,1 53790U 22111T   24191.77663470  .00001260  00000-0  97238-4 0  9990,2 53790  53.2183 123.0348 0001355  97.0331 263.0815 15.08837743101111,6917.887,95.438,540.69,538.815,0.0
53790.0,STARLINK-4734,PAYLOAD,2024-07-10 04:10:40,15.0883376,0.0001387,53.2171,121.2446,93.4938,266.6213,7.0018e-06,-1.76e-06,0.0,0 STARLINK-4734,1 53790U 22111T   24192.17408191 -.00000176  00000-0  70018-5 0  9996,2 53790  53.2171 121.2446 0001387  93.4938 266.6213 15.08833760101177,6917.899,95.438,540.724,538.805,0.0
53790.0,STARLINK-4734,PAYLOAD,2024-07-10 12:07:35,15.08843255,0.0001387,53.2173,119.7578,91.1479,268.9672,8.4904e-05,1.064e-05,0.0,0 STARLINK-4734,1 53790U 22111T   24192.50527452  .00001064  00000-0  84904-4 0  9999,2 53790  53.2173 119.7578 0001387  91.1479 268.9672 15.08843255101222,6917.87,95.437,540.695,538.776,0.0
53790.0,STARLINK-4734,PAYLOAD,2024-07-11 04:01:27,15.08836581,0.0001667,53.2169,116.7839,88.9477,271.1706,6.6657e-05,7.73e-06,0.0,0 STARLINK-4734,1 53790U 22111T   24193.16768248  .00000773  00000-0  66657-4 0  9993,2 53790  53.2169 116.7839 0001667  88.9477 271.1706 15.08836581101326,6917.891,95.438,540.909,538.603,0.0
53790.0,STARLINK-4734,PAYLOAD,2024-07-12 11:49:09,15.08849082,0.0001286,53.2161,110.8353,92.3897,267.7243,0.00013428,1.85e-05,0.0,0 STARLINK-4734,1 53790U 22111T   24194.49247314  .00001850  00000-0  13428-3 0  9990,2 53790  53.2161 110.8353 0001286  92.3897 267.7243 15.08849082101525,6917.853,95.437,540.607,538.828,0.0
53790.0,STARLINK-4734,PAYLOAD,2024-07-12 18:10:43,15.08833165,0.000157,53.2158,109.6467,87.9143,272.2029,5.8856e-05,6.49e-06,0.0,0 STARLINK-4734,1 53790U 22111T   24194.75744635  .00000649  00000-0  58856-4 0  9997,2 53790  53.2158 109.6467 0001570  87.9143 272.2029 15.08833165101565,6917.901,95.438,540.852,538.68,0.0
53790.0,STARLINK-4734,PAYLOAD,2024-07-12 22:56:52,15.08840564,0.0001999,53.2167,108.7554,87.724,272.3981,0.00010333,1.357e-05,0.0,0 STARLINK-4734,1 53790U 22111T   24194.95616101  .00001357  00000-0  10333-3 0  9999,2 53790  53.2167 108.7554 0001999  87.7240 272.3981 15.08840564102406,6917.879,95.438,541.127,538.361,0.0
53790.0,STARLINK-4734,PAYLOAD,2024-07-13 11:39:56,15.08854214,0.000139,53.215,106.3747,105.0273,255.0873,0.00013212,1.816e-05,0.0,0 STARLINK-4734,1 53790U 22111T   24195.48606920  .00001816  00000-0  13212-3 0  9995,2 53790  53.2150 106.3747 0001390 105.0273 255.0873 15.08854214101674,6917.837,95.437,540.664,538.74,0.0
53790.0,STARLINK-4734,PAYLOAD,2024-07-13 18:01:29,15.08844229,0.0001957,53.2157,105.1859,85.7618,274.3598,7.9766e-05,9.82e-06,0.0,0 STARLINK-4734,1 53790U 22111T   24195.75103724  .00000982  00000-0  79766-4 0  9999,2 53790  53.2157 105.1859 0001957  85.7618 274.3598 15.08844229101716,6917.867,95.437,541.086,538.379,0.0
53790.0,STARLINK-4734,PAYLOAD,2024-07-13 22:47:39,15.08838021,0.0002012,53.2155,104.2938,96.8176,263.3045,-2.5552e-06,-3.29e-06,0.0,0 STARLINK-4734,1 53790U 22111T   24195.94976076 -.00000329  00000-0 -25552-5 0  9990,2 53790  53.2155 104.2938 0002012  96.8176 263.3045 15.08838021102558,6917.886,95.438,541.143,538.36,0.0
53790.0,STARLINK-4734,PAYLOAD,2024-07-14 11:30:43,15.08848887,0.0001691,53.2156,101.9122,101.6018,258.5164,0.00014302,1.989e-05,0.0,0 STARLINK-4734,1 53790U 22111T   24196.47967315  .00001989  00000-0  14302-3 0  9995,2 53790  53.2156 101.9122 0001691 101.6018 258.5164 15.08848887102638,6917.853,95.437,540.888,538.548,0.0
53790.0,STARLINK-4734,PAYLOAD,2024-07-14 21:03:03,15.08833773,0.0001534,53.2144,100.1301,99.8148,260.3017,7.5281e-05,9.1e-06,0.0,0 STARLINK-4734,1 53790U 22111T   24196.87712235  .00000910  00000-0  75281-4 0  9995,2 53790  53.2144 100.1301 0001534  99.8148 260.3017 15.08833773101885,6917.899,95.438,540.826,538.703,0.0
